GLOBALSTAR M084         
1 38040U 11080A   24305.53605419 -.00000073  00000+0  17293-3 0  9997
2 38040  52.0036  24.5705 0000272 136.2150 237.9808 12.62269370593793
GLOBALSTAR M080         
1 38041U 11080B   24305.61814963 -.00000067  00000+0  20694-3 0  9995
2 38041  52.0086  25.8474 0000495 167.7083 339.2806 12.62267534593926
GLOBALSTAR M082         
1 38042U 11080C   24305.47328230 -.00000066  00000+0  20828-3 0  9995
2 38042  52.0097 341.7123 0000804  67.9350  80.6556 12.62268643594610
GLOBALSTAR M092         
1 38043U 11080D   24305.42326003 -.00000087  00000+0  95163-4 0  9995
2 38043  52.0087  72.2246 0000639 101.2123 300.1019 12.62268647593064
GLOBALSTAR M090         
1 38044U 11080E   24305.50340479 -.00000055  00000+0  27242-3 0  9995
2 38044  51.9904 335.7230 0000589  78.8187  87.0681 12.62269768594730
GLOBALSTAR M086         
1 38045U 11080F   24305.52951407 -.00000064  00000+0  22401-3 0  9999
2 38045  51.9915 336.1763 0001022 153.3639  11.8004 12.62269146594681
GLOBALSTAR M097         
1 39072U 13005A   24305.20321182 -.00000097  00000+0  39682-4 0  9991
2 39072  52.0043 251.4844 0000762  79.8846 280.2107 12.62266200541896
GLOBALSTAR M093         
1 39073U 13005B   24305.57239358 -.00000086  00000+0  10128-3 0  9996
2 39073  51.9806 244.0279 0000903  76.1297 283.9670 12.62266483541897
